start=new Date('2023-04-12T00:00:00.000Z').valueOf();
sats=[{"PERIOD":"95.591","DECAY_DATE":null,"LAUNCH_DATE":"2021-05-15","ECCENTRICITY":"0.00013190","SITE":"AFETR","CLASSIFICATION_TYPE":"U","MEAN_MOTION":"15.06415767","FILE":"3885783","TLE_LINE1":"1 48583U 21041AG  23101.42067149  .00016548  00000-0  11267-2 0  9999","RA_OF_ASC_NODE":"234.8205","TIME_SYSTEM":"UTC","MEAN_ANOMALY":"271.5417","EPOCH":"2023-04-11T10:05:46.016736","INCLINATION":"53.0534","ELEMENT_SET_NO":"999","RCS_SIZE":"LARGE","TLE_LINE2":"2 48583  53.0534 234.8205 0001319  88.5723 271.5417 15.06415767104803","COUNTRY_CODE":"US","PERIAPSIS":"546.252","OBJECT_NAME":"STARLINK-2237","REF_FRAME":"TEME","NORAD_CAT_ID":"48583","MEAN_ELEMENT_THEORY":"SGP4","EPHEMERIS_TYPE":"0","REV_AT_EPOCH":"10480","ARG_OF_PERICENTER":"88.5723","OBJECT_ID":"2021-041AG","GP_ID":"229915416","CENTER_NAME":"EARTH","BSTAR":"0.00112670000000","MEAN_MOTION_DOT":"0.00016548","SEMIMAJOR_AXIS":"6925.300","MEAN_MOTION_DDOT":"0.0000000000000","APOAPSIS":"548.079","OBJECT_TYPE":"PAYLOAD"},{"REF_FRAME":"TEME","OBJECT_NAME":"STARLINK-2238","PERIAPSIS":"545.974","TLE_LINE2":"2 48584  53.0533 233.1476 0001657  54.9486 305.1658 15.06429965104854","COUNTRY_CODE":"US","RCS_SIZE":"LARGE","ELEMENT_SET_NO":"999","INCLINATION":"53.0533","EPOCH":"2023-04-11T19:01:48.823680","RA_OF_ASC_NODE":"233.1476","TIME_SYSTEM":"UTC","MEAN_ANOMALY":"305.1658","TLE_LINE1":"1 48584U 21041AH  23101.79292620  .00030755  00000-0  20729-2 0  9993","FILE":"3885919","MEAN_MOTION":"15.06429965","CLASSIFICATION_TYPE":"U","SITE":"AFETR","ECCENTRICITY":"0.00016570","LAUNCH_DATE":"2021-05-15","DECAY_DATE":null,"PERIOD":"95.590","OBJECT_TYPE":"PAYLOAD","APOAPSIS":"548.269","MEAN_MOTION_DDOT":"0.0000000000000","SEMIMAJOR_AXIS":"6925.257","MEAN_MOTION_DOT":"0.00030755","BSTAR":"0.00207290000000","CENTER_NAME":"EARTH","GP_ID":"229945259","ARG_OF_PERICENTER":"54.9486","OBJECT_ID":"2021-041AH","REV_AT_EPOCH":"10485","EPHEMERIS_TYPE":"0","MEAN_ELEMENT_THEORY":"SGP4","NORAD_CAT_ID":"48584"},{"ARG_OF_PERICENTER":"86.3195","OBJECT_ID":"2021-041AJ","GP_ID":"229944024","CENTER_NAME":"EARTH","BSTAR":"-0.00014026000000","NORAD_CAT_ID":"48585","MEAN_ELEMENT_THEORY":"SGP4","EPHEMERIS_TYPE":"0","REV_AT_EPOCH":"10484","MEAN_MOTION_DDOT":"0.0000000000000","APOAPSIS":"547.856","OBJECT_TYPE":"PAYLOAD","MEAN_MOTION_DOT":"-0.00002372","SEMIMAJOR_AXIS":"6925.236","SITE":"AFETR","CLASSIFICATION_TYPE":"U","FILE":"3885919","MEAN_MOTION":"15.06436835","TLE_LINE1":"1 48585U 21041AJ  23101.73760348 -.00002372  00000-0 -14026-3 0  9995","PERIOD":"95.590","DECAY_DATE":null,"LAUNCH_DATE":"2021-05-15","ECCENTRICITY":"0.00010910","TLE_LINE2":"2 48585  53.0526 233.3921 0001091  86.3195 273.7918 15.06436835104844","COUNTRY_CODE":"US","PERIAPSIS":"546.345","OBJECT_NAME":"STARLINK-2240","REF_FRAME":"TEME","TIME_SYSTEM":"UTC","RA_OF_ASC_NODE":"233.3921","MEAN_ANOMALY":"273.7918","EPOCH":"2023-04-11T17:42:08.940672","INCLINATION":"53.0526","ELEMENT_SET_NO":"999","RCS_SIZE":"LARGE"},{"OBJECT_TYPE":"PAYLOAD","APOAPSIS":"547.923","MEAN_MOTION_DDOT":"0.0000000000000","SEMIMAJOR_AXIS":"6925.229","MEAN_MOTION_DOT":"0.00027169","BSTAR":"0.00183390000000","CENTER_NAME":"EARTH","GP_ID":"229914665","ARG_OF_PERICENTER":"98.0872","OBJECT_ID":"2021-041AK","REV_AT_EPOCH":"10479","EPHEMERIS_TYPE":"0","MEAN_ELEMENT_THEORY":"SGP4","NORAD_CAT_ID":"48586","REF_FRAME":"TEME","OBJECT_NAME":"STARLINK-2241","PERIAPSIS":"546.265","TLE_LINE2":"2 48586  53.0532 234.9187 0001197  98.0872 262.0253 15.06439011104798","COUNTRY_CODE":"US","RCS_SIZE":"LARGE","ELEMENT_SET_NO":"999","INCLINATION":"53.0532","EPOCH":"2023-04-11T09:33:54.733824","RA_OF_ASC_NODE":"234.9187","MEAN_ANOMALY":"262.0253","TIME_SYSTEM":"UTC","TLE_LINE1":"1 48586U 21041AK  23101.39855016  .00027169  00000-0  18339-2 0  9994","FILE":"3885783","MEAN_MOTION":"15.06439011","CLASSIFICATION_TYPE":"U","SITE":"AFETR","ECCENTRICITY":"0.00011970","DECAY_DATE":null,"LAUNCH_DATE":"2021-05-15","PERIOD":"95.590"},{"CLASSIFICATION_TYPE":"U","TLE_LINE1":"1 48587U 21041AL  23101.40222483  .00016295  00000-0  11110-2 0  9991","MEAN_MOTION":"15.06377378","FILE":"3885783","SITE":"AFETR","ECCENTRICITY":"0.00009350","DECAY_DATE":null,"LAUNCH_DATE":"2021-05-15","PERIOD":"95.594","REF_FRAME":"TEME","OBJECT_NAME":"STARLINK-2242","TLE_LINE2":"2 48587  53.0542 234.8974 0000935  45.9760 314.1306 15.06377378104794","COUNTRY_CODE":"US","PERIAPSIS":"546.635","ELEMENT_SET_NO":"999","INCLINATION":"53.0542","RCS_SIZE":"LARGE","EPOCH":"2023-04-11T09:39:12.225312","RA_OF_ASC_NODE":"234.8974","MEAN_ANOMALY":"314.1306","TIME_SYSTEM":"UTC","CENTER_NAME":"EARTH","BSTAR":"0.00111100000000","ARG_OF_PERICENTER":"45.9760","OBJECT_ID":"2021-041AL","GP_ID":"229914917","REV_AT_EPOCH":"10479","NORAD_CAT_ID":"48587","MEAN_ELEMENT_THEORY":"SGP4","EPHEMERIS_TYPE":"0","OBJECT_TYPE":"PAYLOAD","APOAPSIS":"547.930","MEAN_MOTION_DDOT":"0.0000000000000","SEMIMAJOR_AXIS":"6925.418","MEAN_MOTION_DOT":"0.00016295"},{"PERIOD":"95.590","ECCENTRICITY":"0.00011810","DECAY_DATE":null,"LAUNCH_DATE":"2021-05-15","SITE":"AFETR","TLE_LINE1":"1 48588U 21041AM  23101.51373560  .00028904  00000-0  19495-2 0  9991","MEAN_MOTION":"15.06436275","FILE":"3885783","CLASSIFICATION_TYPE":"U","EPOCH":"2023-04-11T12:19:46.755840","RA_OF_ASC_NODE":"224.3959","TIME_SYSTEM":"UTC","MEAN_ANOMALY":"266.3300","RCS_SIZE":"LARGE","ELEMENT_SET_NO":"999","INCLINATION":"53.0533","PERIAPSIS":"546.285","TLE_LINE2":"2 48588  53.0533 224.3959 0001181  93.7824 266.3300 15.06436275104950","COUNTRY_CODE":"US","REF_FRAME":"TEME","OBJECT_NAME":"STARLINK-2244","EPHEMERIS_TYPE":"0","MEAN_ELEMENT_THEORY":"SGP4","NORAD_CAT_ID":"48588","REV_AT_EPOCH":"10495","GP_ID":"229915167","OBJECT_ID":"2021-041AM","ARG_OF_PERICENTER":"93.7824","BSTAR":"0.00194950000000","CENTER_NAME":"EARTH","MEAN_MOTION_DOT":"0.00028904","SEMIMAJOR_AXIS":"6925.237","MEAN_MOTION_DDOT":"0.0000000000000","OBJECT_TYPE":"PAYLOAD","APOAPSIS":"547.920"},{"CLASSIFICATION_TYPE":"U","TLE_LINE1":"1 48589U 21041AN  23101.51003749  .00032360  00000-0  21811-2 0  9997","FILE":"3885783","MEAN_MOTION":"15.06405273","SITE":"AFETR","ECCENTRICITY":"0.00015630","LAUNCH_DATE":"2021-05-15","DECAY_DATE":null,"PERIOD":"95.592","REF_FRAME":"TEME","OBJECT_NAME":"STARLINK-2245","TLE_LINE2":"2 48589  53.0530 224.4166 0001563  55.9209 304.1928 15.06405273104951","COUNTRY_CODE":"US","PERIAPSIS":"546.115","ELEMENT_SET_NO":"999","INCLINATION":"53.0530","RCS_SIZE":"LARGE","EPOCH":"2023-04-11T12:14:27.239136","TIME_SYSTEM":"UTC","MEAN_ANOMALY":"304.1928","RA_OF_ASC_NODE":"224.4166","CENTER_NAME":"EARTH","BSTAR":"0.00218110000000","OBJECT_ID":"2021-041AN","ARG_OF_PERICENTER":"55.9209","GP_ID":"229913916","REV_AT_EPOCH":"10495","NORAD_CAT_ID":"48589","EPHEMERIS_TYPE":"0","MEAN_ELEMENT_THEORY":"SGP4","OBJECT_TYPE":"PAYLOAD","APOAPSIS":"548.280","MEAN_MOTION_DDOT":"0.0000000000000","SEMIMAJOR_AXIS":"6925.332","MEAN_MOTION_DOT":"0.00032360"},{"REF_FRAME":"TEME","OBJECT_NAME":"STARLINK-2248","PERIAPSIS":"546.028","TLE_LINE2":"2 48591  53.0532 224.4836 0001645  52.3008 307.8130 15.06415101105855","COUNTRY_CODE":"US","RCS_SIZE":"LARGE","ELEMENT_SET_NO":"999","INCLINATION":"53.0532","EPOCH":"2023-04-11T11:51:51.308640","RA_OF_ASC_NODE":"224.4836","TIME_SYSTEM":"UTC","MEAN_ANOMALY":"307.8130","TLE_LINE1":"1 48591U 21041AQ  23101.49434385  .00033625  00000-0  22646-2 0  9993","FILE":"3885783","MEAN_MOTION":"15.06415101","CLASSIFICATION_TYPE":"U","SITE":"AFETR","ECCENTRICITY":"0.00016450","LAUNCH_DATE":"2021-05-15","DECAY_DATE":null,"PERIOD":"95.591","OBJECT_TYPE":"PAYLOAD","APOAPSIS":"548.306","MEAN_MOTION_DDOT":"0.0000000000000","SEMIMAJOR_AXIS":"6925.302","MEAN_MOTION_DOT":"0.00033625","BSTAR":"0.00226460000000","CENTER_NAME":"EARTH","GP_ID":"229914166","OBJECT_ID":"2021-041AQ","ARG_OF_PERICENTER":"52.3008","REV_AT_EPOCH":"10585","MEAN_ELEMENT_THEORY":"SGP4","EPHEMERIS_TYPE":"0","NORAD_CAT_ID":"48591"},{"ECCENTRICITY":"0.00012160","LAUNCH_DATE":"2021-05-15","DECAY_DATE":null,"PERIOD":"95.589","CLASSIFICATION_TYPE":"U","TLE_LINE1":"1 48592U 21041AR  23101.50449558  .00030911  00000-0  20820-2 0  9991","FILE":"3885783","MEAN_MOTION":"15.06453054","SITE":"AFETR","ELEMENT_SET_NO":"999","INCLINATION":"53.0538","RCS_SIZE":"LARGE","EPOCH":"2023-04-11T12:06:28.418112","MEAN_ANOMALY":"288.8290","TIME_SYSTEM":"UTC","RA_OF_ASC_NODE":"234.4666","REF_FRAME":"TEME","OBJECT_NAME":"STARLINK-2249","TLE_LINE2":"2 48592  53.0538 234.4666 0001216  71.2831 288.8290 15.06453054104811","COUNTRY_CODE":"US","PERIAPSIS":"546.209","REV_AT_EPOCH":"10481","NORAD_CAT_ID":"48592","MEAN_ELEMENT_THEORY":"SGP4","EPHEMERIS_TYPE":"0","CENTER_NAME":"EARTH","BSTAR":"0.00208200000000","ARG_OF_PERICENTER":"71.2831","OBJECT_ID":"2021-041AR","GP_ID":"229915417","SEMIMAJOR_AXIS":"6925.186","MEAN_MOTION_DOT":"0.00030911","OBJECT_TYPE":"PAYLOAD","APOAPSIS":"547.893","MEAN_MOTION_DDOT":"0.0000000000000"},{"MEAN_MOTION_DDOT":"0.0000000000000","APOAPSIS":"548.064","OBJECT_TYPE":"PAYLOAD","MEAN_MOTION_DOT":"0.00031627","SEMIMAJOR_AXIS":"6925.123","GP_ID":"229915667","OBJECT_ID":"2021-041AS","ARG_OF_PERICENTER":"77.2050","BSTAR":"0.00212840000000","CENTER_NAME":"EARTH","EPHEMERIS_TYPE":"0","MEAN_ELEMENT_THEORY":"SGP4","NORAD_CAT_ID":"48593","REV_AT_EPOCH":"10481","PERIAPSIS":"545.912","TLE_LINE2":"2 48593  53.0544 234.4187 0001554  77.2050 282.9112 15.06473707104816","COUNTRY_CODE":"US","OBJECT_NAME":"STARLINK-2250","REF_FRAME":"TEME","TIME_SYSTEM":"UTC","RA_OF_ASC_NODE":"234.4187","MEAN_ANOMALY":"282.9112","EPOCH":"2023-04-11T12:13:10.152192","RCS_SIZE":"LARGE","INCLINATION":"53.0544","ELEMENT_SET_NO":"999","SITE":"AFETR","FILE":"3885783","MEAN_MOTION":"15.06473707","TLE_LINE1":"1 48593U 21041AS  23101.50914528  .00031627  00000-0  21284-2 0  9996","CLASSIFICATION_TYPE":"U","PERIOD":"95.587","DECAY_DATE":null,"LAUNCH_DATE":"2021-05-15","ECCENTRICITY":"0.00015540"}];
